#dP2022  6 13  0  0  0.00000000      97 __u+U IGS14 FIT  IAC
## 2214  86400.00000000   900.00000000 59743 0.0000000000000
+  116   C06C07C08C09C10C11C12C13C14C16C19C20C21C22C23C24C25
+        C26C27C28C29C30C32C33C34C35C36C37C38C39C40C41C42C43
+        C44C45C46E01E02E03E04E05E07E08E09E10E11E12E13E14E15
+        E18E19E21E24E25E26E27E30E31E33E34E36G01G02G03G04G05
+        G06G07G08G09G10G11G12G13G14G15G16G17G18G19G20G21G22
+        G23G24G25G26G27G28G29G30G31G32J02J03R01R02R03R04R05
+        R07R08R09R11R12R13R14R15R17R18R19R20R21R24  0  0  0
++         7  7  7  7  7  6  6  7  6  7  6  6  6  6  6  6  5
++         5  5  5  6  6  6  6  5  6  6  5  6  6  7  6  6  6
++         6  6  6  4  4  4  5  4  4  4  5  5  5  4  4  5  4
++         4  4  4  4  5  4  4  4  4  4  4  4  3  4  3  4  3
++         3  3  3  3  3  3  4  3  3  3  4  4  3  4  4  3  3
++         3  3  3  3  3  4  3  3  4  3  9  9  7  6  6  6  6
++         6  6  6  6  6  7  6  6  6  6  6  7  6  6  0  0  0
%c M  cc GPS ccc cccc cccc cccc cccc ccccc ccccc ccccc ccccc
%c cc cc ccc ccc cccc cccc cccc cccc ccccc ccccc ccccc ccccc
%f  1.2500000  1.025000000  0.00000000000  0.000000000000000
%f  0.0000000  0.000000000  0.00000000000  0.000000000000000
%i    0    0    0    0      0      0      0      0         0
%i    0    0    0    0      0      0      0      0         0
/* INFORMATION & ANALYSIS CENTER (IAC)            FINAL DATA
/* S/V CLOCKS ARE ALIGNED TO GNSS TIME                      
/* G:C1WC2W R:C1PC2P E:C1XC5X C:C2IC6I J:C1CC2S             
/* PCV:IGS14_2196 OL/AL:FES2004  NONE     YN ORB:CoN CLK:CoN
*  2022 06 13 18 45  0.00000000
PC06 -12138.683093  24724.575095  31902.193853    182.695031
PC07 -11487.823732  40666.832431   -567.325409   -294.606482
PC08   1683.887412  29411.455289 -30111.604237    360.686984
PC09  -4644.397829  24823.656995  34076.896651   -880.112096
PC10  -5861.674727  41383.777505  -7016.731365    126.484708
PC11   3251.142243  14967.748643 -23269.409902    412.416773
PC12 -16634.130794  14460.499542 -17097.247675   -599.074107
PC13   6661.863908  32530.527974 -25689.110419     -4.898950
PC14    116.025927  25312.419021  11840.199170    502.186659
PC16 -16426.878769  23859.045937  30733.670299    139.192600
PC19  -7074.956741 -19364.612876 -18766.875524     -0.226940
PC20   5691.907327 -26899.881403  -4641.403090   -957.837514
PC21 -15912.141672  18744.508148 -13205.991813   -478.531147
PC22 -16316.368084   -285.479239 -22637.217554   -964.701467
PC23  22002.264988  10114.433321 -13860.323438   -934.061567
PC24    804.359667  21007.666932  18337.481801   -970.791874
PC25  17512.223980  21591.376561   2299.609059   -722.385829
PC26 -13759.177293   8925.488807  22571.864176    723.950002
PC27  23520.103958 -11298.440231   9889.533636    738.453944
PC28  26959.919412     99.446485  -7201.542805     78.166408
PC29 -14757.302229 -11440.245040  20725.557409    567.924879
PC30   6678.983734 -16691.857432  21336.104965    499.841301
PC32  15807.319958 -18766.677889  13295.547638   -968.195878
PC33   7159.914545  19430.585755  18725.011023   -969.553491
PC34  -5464.602471  16707.209068 -21685.022441   -381.600782
PC35 -26658.912032     73.733819   8178.961062    319.143326
PC36 -16715.817579 -22169.510219  -2779.379440   -967.872022
PC37  14758.836436  -7540.446797 -22430.410952   -909.266964
PC38  -6240.584377  25936.836762 -32597.322641      2.915791
PC39 -21703.159232  23785.522950  27171.474763     34.984688
PC40 -18195.637141  38045.449822   2771.791209    277.148767
PC41  16236.494487    851.697659  22733.303838   -971.066168
PC42  -6323.360744  26949.373244   3686.176135   -961.039186
PC43  14053.886755  11954.392410 -20956.312195   -918.378761
PC44 -23164.952255  12121.985878  -9729.341372    691.264904
PC45 -21936.377332  -9879.292975  14162.430551    782.584222
PC46  -2369.563077 -21648.353780 -17461.747006   -377.238739
PE01  11757.162319 -16378.703308 -21670.339982   -495.519129
PE02 -11674.872245  16531.377164  21596.287444    305.457603
PE03 -22167.311216  19628.467387    -33.673489   -568.464706
PE04   7989.118683 -22977.489917 -16849.639175  -1049.298429
PE05 -23594.330409   4649.589919 -17253.496576   -172.470838
PE07  11279.482816  12815.990877  24191.226075   -678.073869
PE08  -7764.848486  22897.184491  17091.950360   -546.024926
PE09 -11297.212726 -12595.597748 -24278.955609   -552.286481
PE10 -12480.005350 -17718.363502  20147.272075   -519.483055
PE11 -21812.562016 -15669.237457  12409.498379   3360.418298
PE12  -1545.482317 -17027.662736  24149.774812     -9.277870
PE13  21332.277755  15831.695984 -13068.503077    429.268490
PE14 -19479.548061  -3897.509314  16341.776503  -1808.842141
PE15   1456.348865  16929.878697 -24239.954793    739.607587
PE18  14263.885866  14205.861035 -23475.780946  -1333.575566
PE19  23198.062546 -18225.183616   2434.218733  -5383.505693
PE21  17261.918222   4014.967188 -23707.252314   -739.968150
PE24 -12651.450534 -24274.929460  11276.321307   -668.880227
PE25 -17282.516471  -4334.458939  23644.190671   -577.461599
PE26  28450.233457   4855.533229   6567.941849  -1258.732011
PE27  13258.544405  23434.873561 -12284.431114   -321.343602
PE30    713.250067  28713.543647   7126.808631   -589.875004
PE31  -1503.008390 -28893.230507  -6245.909895   -498.220221
PE33  19189.971768  -8031.737866  21057.100567   -455.670501
PE34 -19004.828978   8204.040296 -21174.268992   -521.988253
PE36 -28528.799761  -5440.749665  -5699.358747   -387.639107
PG01  21914.193489  14464.952791  -5402.481991    342.021060
PG02  -3658.682904 -16762.238578  20888.552617   -652.713364
PG03  12421.460088  17186.877099  15951.133716   -277.479541
PG04  14946.757135   7476.582074  20671.566664   -157.409217
PG05  -5882.173072 -25599.187080  -3529.879486    -85.411460
PG06  12143.420457  -9971.708123  21487.969978    342.297879
PG07  24658.216344   4336.007048  -9166.254750    321.789933
PG08   7563.431947  13235.623719 -21774.820647    -72.019217
PG09  21559.984560  -2397.338830  15277.663720   -328.666732
PG10 -11914.720752  13454.858585 -19306.060377   -453.572432
PG11  -2132.793394 -17069.447385  20236.245229    -15.352677
PG12  -9469.922726 -20895.618925  13212.966958   -230.612757
PG13   3309.322943 -17240.129400 -20031.318458    329.348131
PG14  13327.013892 -11932.026842 -19602.899014   -111.424343
PG15  -9953.781760 -12652.567420 -21529.112609    -53.507743
PG16   -595.598404  26276.052272    896.254112   -508.692748
PG17  22562.061998 -14063.365878    213.619606    624.617145
PG18 -24381.050503  -4523.216757  -9686.593212    143.103924
PG19  19166.897804 -16470.232955   7539.670441    170.253263
PG20   -139.357440 -25321.743934   8395.482756    511.702574
PG21  16603.348025  15953.919954 -13183.946156    161.309241
PG22 -16411.262818  18156.549625  10509.673591    275.237097
PG23 -14938.517825   1686.505727 -21906.872899    -27.818404
PG24 -20224.453951 -14942.380337  -9474.476117    221.460438
PG25 -15132.338452  -7203.093660  20379.397687    336.944425
PG26  -5396.309769  22947.157080  11842.480637    212.120058
PG27  -5824.395042  18926.163782 -17720.071556    215.132958
PG28   9469.574416 -20474.129588 -13693.824761    338.966225
PG29 -21767.558949   1167.643741  15171.178475   -523.713307
PG30  20070.199806  -4165.685124 -16936.773983   -531.270900
PG31 -10349.865523  11762.522208  21362.772961   -181.665764
PG32 -20693.445184  16398.662346   1813.635458   -150.408257
PJ02 -26263.781783  24886.583975  26701.661892     -0.665555
PJ03 -31964.197311  18601.367531 -15513.872369     -2.832646
PR01  14443.733927 -19682.848426   7369.778650      9.892984
PR02   5925.442532 -21739.511853 -11968.626243    521.215801
PR03  -6137.940636 -10666.525488 -22302.764049     58.376145
PR04 -14351.412778   6251.686149 -20105.570052    146.290047
PR05 -14835.072982  19588.343717  -6793.109087     94.567983
PR07   6691.117395   9915.478530  22565.844087     36.376669
PR08  14490.269930  -6361.443548  20073.854417    -65.683000
PR09   7025.690614  21818.471338  11294.509416     60.300804
PR11  15050.074795   6941.031848 -19383.759469     36.302214
PR12   5679.347368 -11138.578234 -22207.953439     18.837807
PR13  -6136.964881 -21363.838873 -12523.249916    -23.553556
PR14 -15258.161706 -19533.393657   5997.036310     25.254783
PR15 -14804.356237  -6178.965458  19852.398988     95.421750
PR17 -17979.961508  -7387.476093  16539.314663    534.626644
PR18 -25446.835349   -557.981657   1207.958150    120.166942
PR19 -20640.615342   5612.224505 -13907.985477   -192.594178
PR20  -1037.182572  10313.415343 -23306.176410    -72.563773
PR21  19056.125143   6929.572168 -15467.106469   -309.164685
PR24     30.785891 -10823.989599  23105.819469     98.520464
EOF
